satname,norad_id,inclination_deg,eccentricity,mean_motion_rev_per_day,perigee_km,apogee_km,l1,l2
STARLINK-1331,45578,53.0534,0.0001394,15.06433465,546.1436151402195,548.074373723467,1 45578U 20025AZ  25319.73479485  .00017656  00000+0  12002-2 0  9996,2 45578  53.0534 228.1820 0001394  87.2393 272.8755 15.06433465308344
STARLINK-1333,45580,53.0532,0.0001525,15.06402956,546.1463839653534,548.2586125123162,1 45580U 20025BB  25319.80760093  .00000301  00000+0  39133-4 0  9990,2 45580  53.0532 237.8522 0001525  98.1641 261.9521 15.06402956308200
STARLINK-1335,45581,53.0535,0.000152,15.06394568,546.1755507745984,548.2808617973087,1 45581U 20025BC  25319.74584236  .00001935  00000+0  14878-3 0  9999,2 45581  53.0535 228.1352 0001520  75.9337 284.1821 15.06394568308331
STARLINK-1337,45582,53.0531,0.0001456,15.06422125,546.1354279527777,548.1520697068363,1 45582U 20025BD  25319.76796596  .00011204  00000+0  76943-3 0  9997,2 45582  53.0531 228.0348 0001456  80.9647 279.1507 15.06422125308336
STARLINK-1347,45586,53.0534,0.0009047,15.33769953,458.38591076078046,470.76711659242574,1 45586U 20025BH  25319.71121787  .00018293  00000+0  56170-3 0  9995,2 45586  53.0534 210.9766 0009047  69.2431 290.9538 15.33769953308565
STARLINK-1360,45588,53.0405,0.0002641,15.79458915,330.20054028270806,333.7448202158157,1 45588U 20025BK  25319.91671295  .00251867  00000+0  13253-2 0  9993,2 45588  53.0405 123.6775 0002641 199.9973 164.2869 15.79458915  5982
STARLINK-1364,45589,53.054,0.0001219,15.06442921,546.2358304243071,547.9241983324118,1 45589U 20025BL  25319.77165307  .00018025  00000+0  12245-2 0  9997,2 45589  53.0540 228.0197 0001219  90.6867 269.4261 15.06442921308339
STARLINK-1365,45590,53.0587,0.0001259,15.06403438,546.3291209266381,548.0729210403215,1 45590U 20025BM  25318.85846867 -.00005864  00000+0 -37505-3 0  9990,2 45590  53.0587 262.1145 0001259 126.3196 233.7910 15.06403438307794
STARLINK-1443,45660,53.0535,0.0001218,15.06421868,546.3010371874807,547.9880357697666,1 45660U 20035D   25319.44085057  .00022052  00000+0  14938-2 0  9991,2 45660  53.0535 219.5046 0001218  97.8758 262.2369 15.06421868301518
STARLINK-1446,45663,53.0249,0.0002263,15.34829937,459.87788211009956,462.9734681768705,1 45663U 20035G   25318.85088681  .00016265  00000+0  48479-3 0  9991,2 45663  53.0249 182.2016 0002263  98.7607 261.3650 15.34829937301984
STARLINK-1448,45665,53.0535,0.0001795,15.06412417,545.9304086479733,548.4165951181494,1 45665U 20035J   25319.70990534  .00013292  00000+0  90924-3 0  9996,2 45665  53.0535 218.2914 0001795  86.8378 273.2816 15.06412417301541
STARLINK-1451,45668,53.0529,0.0001787,15.0643129,545.8781176044131,548.3532029051885,1 45668U 20035M   25319.71364127  .00018221  00000+0  12379-2 0  9997,2 45668  53.0529 218.5948 0001787 105.1200 254.9987 15.06431290301553
STARLINK-1452,45669,53.0399,0.0012278,15.27952217,473.5119745820866,490.357566822222,1 45669U 20035N   25318.69468328  .00013920  00000+0  51442-3 0  9998,2 45669  53.0399 202.0272 0012278  71.8111 288.4223 15.27952217301694
STARLINK-1453,45670,53.0533,0.0001207,15.06408493,546.3496418096302,548.0214146679473,1 45670U 20035P   25319.65739031  .00009745  00000+0  67204-3 0  9992,2 45670  53.0533 188.5294 0001207 104.7401 255.3722 15.06408493301850
STARLINK-1454,45671,53.0537,0.0002242,15.06418264,545.6029313774534,548.7082325712099,1 45671U 20035Q   25319.73571418  .00006915  00000+0  48241-3 0  9991,2 45671  53.0537 218.1824 0002242  75.0520 285.0717 15.06418264301543
STARLINK-1456,45673,53.0544,0.0001134,15.06376611,546.4979001266211,548.0685854376852,1 45673U 20035S   25319.75046145  .00011268  00000+0  77465-3 0  9996,2 45673  53.0544 218.1127 0001134  78.4875 281.6242 15.06376611301564
STARLINK-1457,45674,53.0633,0.0001329,15.36488441,455.59466178576804,457.4113090938981,1 45674U 20035T   25319.91671295  .01095038  00000+0  27719-1 0  9998,2 45674  53.0633 215.5643 0001329 107.3385 240.2725 15.36488441  5793
STARLINK-1458,45675,53.0541,0.0001924,15.06375767,545.9533782363278,548.6182809411539,1 45675U 20035U   25319.68044088  .00007457  00000+0  51935-3 0  9993,2 45675  53.0541 218.4166 0001924 133.9034 226.2114 15.06375767301519
STARLINK-1460,45676,53.0543,0.0001422,15.06421714,546.1602333534611,548.1297835566656,1 45676U 20035V   25319.71727561  .00018253  00000+0  12404-2 0  9995,2 45676  53.0543 218.2608 0001422  95.4194 264.6957 15.06421714301518
STARLINK-1392,45677,53.0538,0.0001594,15.06396692,546.1177943241692,548.3255986766144,1 45677U 20035W   25319.79467110 -.00014438  00000+0 -95242-3 0  9990,2 45677  53.0538 217.9170 0001594  74.5947 285.5218 15.06396692301560
STARLINK-1394,45679,53.0554,0.0001572,15.06429297,546.0331176296568,548.2104189864131,1 45679U 20035Y   25319.72558811  .00023991  00000+0  16227-2 0  9991,2 45679  53.0554 208.2253 0001572  97.9218 262.1950 15.06429297301697
STARLINK-1402,45685,53.0542,0.0003841,15.28256619,478.38919921987235,483.6584065486486,1 45685U 20035AE  25319.78176990  .00011647  00000+0  42937-3 0  9991,2 45685  53.0542 198.4631 0003841 129.7553 230.3784 15.28256619301847
STARLINK-1404,45686,53.0536,0.0001514,15.06421948,546.0958037085857,548.192778883591,1 45686U 20035AF  25319.68503432  .00010794  00000+0  74200-3 0  9996,2 45686  53.0536 208.4083 0001514 111.5341 248.5809 15.06421948301690
STARLINK-1413,45689,53.0541,0.0001208,15.06325352,546.6037430108718,548.276962499297,1 45689U 20035AJ  25318.04479680  .00006889  00000+0  48190-3 0  9994,2 45689  53.0541 215.7674 0001208  79.2488 280.8637 15.06325352301351
STARLINK-1417,45693,53.0529,0.0001446,15.06413277,546.1694666269432,548.1722656618331,1 45693U 20035AN  25319.43439889  .00010280  00000+0  70777-3 0  9996,2 45693  53.0529 209.5334 0001446  85.9026 274.2129 15.06413277301641
STARLINK-1420,45695,53.0534,0.0001262,15.06369679,546.4304982791164,548.1784797109376,1 45695U 20035AQ  25319.63432756  .00002204  00000+0  16696-3 0  9993,2 45695  53.0534 188.6237 0001262  86.4691 273.6442 15.06369679301960
STARLINK-1422,45696,53.0534,0.0001551,15.06428716,546.0494410210713,548.1976568433502,1 45696U 20035AR  25319.71084325  .00020027  00000+0  13585-2 0  9994,2 45696  53.0534 208.2926 0001551 107.7526 252.3632 15.06428716301682
STARLINK-1351,45697,53.0537,0.0001273,15.06416362,546.2798207309861,548.0430017064818,1 45697U 20035AS  25319.62053966  .00014101  00000+0  96319-3 0  9995,2 45697  53.0537 188.6977 0001273  97.2091 262.9043 15.06416362301962
STARLINK-1398,45699,53.0471,0.0005177,15.54522318,400.03067256452596,407.05242253265806,1 45699U 20035AU  25319.50909641  .00049883  00000+0  74588-3 0  9993,2 45699  53.0471 143.8931 0005177 152.4328 207.6958 15.54522318302580
STARLINK-1400,45700,53.0551,0.0001417,15.06385669,546.2741526229274,548.2368088519679,1 45700U 20035AV  25319.66107597 -.00008431  00000+0 -54799-3 0  9991,2 45700  53.0551 188.5114 0001417  97.8533 262.2617 15.06385669301967
STARLINK-1403,45701,53.054,0.0001225,15.06371657,546.4500606734209,548.1467923529171,1 45701U 20035AW  25318.82807414  .00011023  00000+0  75835-3 0  9997,2 45701  53.0540 192.2520 0001225  83.9804 276.1324 15.06371657301830
STARLINK-1407,45703,53.0395,0.0012332,15.43457064,427.51237102285904,444.3185500114778,1 45703U 20035AY  25319.52152593  .00024058  00000+0  53549-3 0  9998,2 45703  53.0395 143.9214 0012332 109.5302 250.7035 15.43457064302580
STARLINK-1411,45706,53.0523,0.0001944,15.4317794,435.41229035819833,438.06191340901114,1 45706U 20035BB  25319.85841022  .00052192  00000+0  11603-2 0  9993,2 45706  53.0523 169.5237 0001944 161.2842 198.8234 15.43177940302244
STARLINK-1423,45710,53.0536,0.0001498,15.06400702,546.1719895185397,548.2468233019008,1 45710U 20035BF  25319.38464472  .00014061  00000+0  96097-3 0  9990,2 45710  53.0536 189.7563 0001498  77.3533 282.7623 15.06400702301920
STARLINK-1433,45711,53.053,0.0001141,15.06384726,546.4681833321401,548.0485585557899,1 45711U 20035BG  25318.83544139  .00014024  00000+0  95891-3 0  9999,2 45711  53.0530 192.2196 0001141  95.0481 265.0638 15.06384726301837
STARLINK-1434,45712,53.0482,0.0007076,15.16379255,511.9155805800401,521.6732875455255,1 45712U 20035BH  25319.36788365  .00007971  00000+0  42092-3 0  9998,2 45712  53.0482 184.9937 0007076 106.4502 253.7269 15.16379255301992
STARLINK-1465,45731,53.0561,0.000148,15.06388128,546.222987175629,548.2729011190977,1 45731U 20038B   25319.46572404  .00004496  00000+0  32062-3 0  9993,2 45731  53.0561  29.3889 0001480 117.9604 242.1534 15.06388128298970
STARLINK-1471,45735,53.0511,9.97e-05,15.417552,440.2491314630306,441.6088532219046,1 45735U 20038F   25319.72721073  .00024622  00000+0  58115-3 0  9994,2 45735  53.0511 324.7440 0000997  69.7113 290.3998 15.41755200299917
STARLINK-1474,45738,53.0355,0.0004322,15.70037159,355.87900900859313,361.7024093203954,1 45738U 20038J   25319.91671295  .00171126  00000+0  13691-2 0  9999,2 45738  53.0355 278.1397 0004322  51.5872 124.0561 15.70037159  5918
STARLINK-1475,45739,53.0466,0.000682,15.87144582,305.7314067907482,314.8544251961639,1 45739U 20038K   25319.91671295  .00249376  00000+0  91257-3 0  9998,2 45739  53.0466 243.1564 0006820  92.1421 104.6250 15.87144582  5989
STARLINK-1480,45741,53.0554,0.0001548,15.0641091,546.1060817807493,548.2501593420757,1 45741U 20038M   25319.57997889  .00013279  00000+0  90843-3 0  9994,2 45741  53.0554  28.8765 0001548  84.1852 275.9313 15.06410910299004
STARLINK-1500,45744,53.0408,0.0001356,15.28457109,479.49395132992413,481.3539930655843,1 45744U 20038Q   25319.54308641  .00024846  00000+0  89463-3 0  9994,2 45744  53.0408   5.5393 0001356 276.2148  83.8696 15.28457109299323
STARLINK-1504,45746,53.0289,0.0002001,15.41613805,439.98136522543064,442.7105222995251,1 45746U 20038S   25319.29340944  .00022962  00000+0  54527-3 0  9990,2 45746  53.0289 329.9093 0002001 333.0209  27.0690 15.41613805299797
